{"type": "FeatureCollection", "features": [ {"type": "Feature", "properties": {"norad_id": 33939, "name": "COSMOS 2251 DEB", "group": "cosmos-2251-debris", "lat": 71.98848825659282, "lon": 159.38121848692384, "alt_km": 561.6152574401649, "timestamp": "2025-12-04T10:51:50.499028+00:00", "meta": {"OBJECT_NAME": "COSMOS 2251 DEB", "OBJECT_ID": "1993-036EU", "EPOCH": "2025-12-03T07:15:58.749984", "MEAN_MOTION": 14.98646813, "ECCENTRICITY": 0.0003138, "INCLINATION": 74.0071, "RA_OF_ASC_NODE": 99.8199, "ARG_OF_PERICENTER": 119.8162, "MEAN_ANOMALY": 240.3336, "EPHEMERIS_TYPE": 0, "CLASSIFICATION_TYPE": "U", "NORAD_CAT_ID": 33939, "ELEMENT_SET_NO": 999, "REV_AT_EPOCH": 88611, "BSTAR": 0.0046169, "MEAN_MOTION_DOT": 0.00055865, "MEAN_MOTION_DDOT": 0}, "tle": {"line1": "1 33939U 93036EU  25337.30276331  .00055865  00000+0  46169-2 0  9999", "line2": "2 33939  74.0071  99.8199 0003138 119.8162 240.3336 14.98646813886111"}}, "geometry": {"type": "Point", "coordinates": [159.38121848692384, 71.98848825659282]}}, {"type": "Feature", "properties": {"norad_id": 33940, "name": "COSMOS 2251 DEB", "group": "cosmos-2251-debris", "lat": -15.255843186567434, "lon": 154.79683688688957, "alt_km": 704.1542047274961, "timestamp": "2025-12-04T10:51:50.499039+00:00", "meta": {"OBJECT_NAME": "COSMOS 2251 DEB", "OBJECT_ID": "1993-036EV", "EPOCH": "2025-12-03T22:00:33.082848", "MEAN_MOTION": 14.5865456, "ECCENTRICITY": 0.0011695, "INCLINATION": 74.0382, "RA_OF_ASC_NODE": 160.2933, "ARG_OF_PERICENTER": 239.3743, "MEAN_ANOMALY": 173.258, "EPHEMERIS_TYPE": 0, "CLASSIFICATION_TYPE": "U", "NORAD_CAT_ID": 33940, "ELEMENT_SET_NO": 999, "REV_AT_EPOCH": 88465, "BSTAR": 0.0020167, "MEAN_MOTION_DOT": 9.391e-05, "MEAN_MOTION_DDOT": 0}, "tle": {"line1": "1 33940U 93036EV  25337.91704957  .00009391  00000+0  20167-2 0  9991", "line2": "2 33940  74.0382 160.2933 0011695 239.3743 173.2580 14.58654560884653"}}, "geometry": {"type": "Point", "coordinates": [154.79683688688957, -15.255843186567434]}}, {"type": "Feature", "properties": {"norad_id": 33942, "name": "COSMOS 2251 DEB", "group": "cosmos-2251-debris", "lat": 71.24379347317722, "lon": -12.45501037224114, "alt_km": 751.9134868542715, "timestamp": "2025-12-04T10:51:50.499049+00:00", "meta": {"OBJECT_NAME": "COSMOS 2251 DEB", "OBJECT_ID": "1993-036EX", "EPOCH": "2025-12-04T03:52:03.079200", "MEAN_MOTION": 14.37968223, "ECCENTRICITY": 0.0019914, "INCLINATION": 74.0361, "RA_OF_ASC_NODE": 290.6274, "ARG_OF_PERICENTER": 15.8307, "MEAN_ANOMALY": 355.5144, "EPHEMERIS_TYPE": 0, "CLASSIFICATION_TYPE": "U", "NORAD_CAT_ID": 33942, "ELEMENT_SET_NO": 999, "REV_AT_EPOCH": 88011, "BSTAR": 0.00045884, "MEAN_MOTION_DOT": 1.364e-05, "MEAN_MOTION_DDOT": 0}, "tle": {"line1": "1 33942U 93036EX  25338.16114675  .00001364  00000+0  45884-3 0  9999", "line2": "2 33942  74.0361 290.6274 0019914  15.8307 355.5144 14.37968223880112"}}, "geometry": {"type": "Point", "coordinates": [-12.45501037224114, 71.24379347317722]}}, {"type": "Feature", "properties": {"norad_id": 33944, "name": "COSMOS 2251 DEB", "group": "cosmos-2251-debris", "lat": -26.534292392653267, "lon": -44.04219682364578, "alt_km": 776.792401201822, "timestamp": "2025-12-04T10:51:50.499059+00:00", "meta": {"OBJECT_NAME": "COSMOS 2251 DEB", "OBJECT_ID": "1993-036EZ", "EPOCH": "2025-12-04T01:15:18.967104", "MEAN_MOTION": 14.37314834, "ECCENTRICITY": 0.0111935, "INCLINATION": 74.04, "RA_OF_ASC_NODE": 324.9095, "ARG_OF_PERICENTER": 66.8096, "MEAN_ANOMALY": 356.1013, "EPHEMERIS_TYPE": 0, "CLASSIFICATION_TYPE": "U", "NORAD_CAT_ID": 33944, "ELEMENT_SET_NO": 999, "REV_AT_EPOCH": 87903, "BSTAR": 0.00051821, "MEAN_MOTION_DOT": 1.635e-05, "MEAN_MOTION_DDOT": 0}, "tle": {"line1": "1 33944U 93036EZ  25338.05230286  .00001635  00000+0  51821-3 0  9995", "line2": "2 33944  74.0400 324.9095 0111935  66.8096 356.1013 14.37314834879031"}}, "geometry": {"type": "Point", "coordinates": [-44.04219682364578, -26.534292392653267]}}, {"type": "Feature", "properties": {"norad_id": 33945, "name": "COSMOS 2251 DEB", "group": "cosmos-2251-debris", "lat": -27.006517120230797, "lon": 149.84580564719656, "alt_km": 796.0836392553128, "timestamp": "2025-12-04T10:51:50.499069+00:00", "meta": {"OBJECT_NAME": "COSMOS 2251 DEB", "OBJECT_ID": "1993-036FA", "EPOCH": "2025-12-04T01:31:49.512864", "MEAN_MOTION": 14.34589744, "ECCENTRICITY": 0.0021584, "INCLINATION": 74.0293, "RA_OF_ASC_NODE": 322.1654, "ARG_OF_PERICENTER": 51.214, "MEAN_ANOMALY": 309.0936, "EPHEMERIS_TYPE": 0, "CLASSIFICATION_TYPE": "U", "NORAD_CAT_ID": 33945, "ELEMENT_SET_NO": 999, "REV_AT_EPOCH": 87891, "BSTAR": 0.00024987, "MEAN_MOTION_DOT": 6.82e-06, "MEAN_MOTION_DDOT": 0}, "tle": {"line1": "1 33945U 93036FA  25338.06376751  .00000682  00000+0  24987-3 0  9999", "line2": "2 33945  74.0293 322.1654 0021584  51.2140 309.0936 14.34589744878919"}}, "geometry": {"type": "Point", "coordinates": [149.84580564719656, -27.006517120230797]}}, {"type": "Feature", "properties": {"norad_id": 33948, "name": "COSMOS 2251 DEB", "group": "cosmos-2251-debris", "lat": 25.126978391482734, "lon": -31.944182048806486, "alt_km": 756.2724291667282, "timestamp": "2025-12-04T10:51:50.499079+00:00", "meta": {"OBJECT_NAME": "COSMOS 2251 DEB", "OBJECT_ID": "1993-036FD", "EPOCH": "2025-12-04T00:42:29.691648", "MEAN_MOTION": 14.35613003, "ECCENTRICITY": 0.002237, "INCLINATION": 74.0352, "RA_OF_ASC_NODE": 321.116, "ARG_OF_PERICENTER": 39.4809, "MEAN_ANOMALY": 320.7968, "EPHEMERIS_TYPE": 0, "CLASSIFICATION_TYPE": "U", "NORAD_CAT_ID": 33948, "ELEMENT_SET_NO": 999, "REV_AT_EPOCH": 87898, "BSTAR": 0.00035496, "MEAN_MOTION_DOT": 1e-05, "MEAN_MOTION_DDOT": 0}, "tle": {"line1": "1 33948U 93036FD  25338.02951032  .00001000  00000+0  35496-3 0  9991", "line2": "2 33948  74.0352 321.1160 0022370  39.4809 320.7968 14.35613003878982"}}, "geometry": {"type": "Point", "coordinates": [-31.944182048806486, 25.126978391482734]}}, {"type": "Feature", "properties": {"norad_id": 33971, "name": "COSMOS 2251 DEB", "group": "cosmos-2251-debris", "lat": -26.842530736084285, "lon": -99.28714663582647, "alt_km": 754.7993535152036, "timestamp": "2025-12-04T10:51:50.499089+00:00", "meta": {"OBJECT_NAME": "COSMOS 2251 DEB", "OBJECT_ID": "1993-036FE", "EPOCH": "2025-12-03T22:00:12.396960", "MEAN_MOTION": 14.39698788, "ECCENTRICITY": 0.0018107, "INCLINATION": 74.0248, "RA_OF_ASC_NODE": 270.0383, "ARG_OF_PERICENTER": 12.2199, "MEAN_ANOMALY": 63.8153, "EPHEMERIS_TYPE": 0, "CLASSIFICATION_TYPE": "U", "NORAD_CAT_ID": 33971, "ELEMENT_SET_NO": 999, "REV_AT_EPOCH": 88012, "BSTAR": 0.00057712, "MEAN_MOTION_DOT": 1.784e-05, "MEAN_MOTION_DDOT": 0}, "tle": {"line1": "1 33971U 93036FE  25337.91681015  .00001784  00000+0  57712-3 0  9999", "line2": "2 33971  74.0248 270.0383 0018107  12.2199  63.8153 14.39698788880122"}}, "geometry": {"type": "Point", "coordinates": [-99.28714663582647, -26.842530736084285]}}, {"type": "Feature", "properties": {"norad_id": 33972, "name": "COSMOS 2251 DEB", "group": "cosmos-2251-debris", "lat": 14.770034411934668, "lon": -149.7353188175249, "alt_km": 683.9373109613825, "timestamp": "2025-12-04T10:51:50.499100+00:00", "meta": {"OBJECT_NAME": "COSMOS 2251 DEB", "OBJECT_ID": "1993-036FF", "EPOCH": "2025-12-02T23:58:48.154080", "MEAN_MOTION": 14.36111231, "ECCENTRICITY": 0.01229339, "INCLINATION": 73.9949, "RA_OF_ASC_NODE": 208.5999, "ARG_OF_PERICENTER": 18.5394, "MEAN_ANOMALY": 45.3363, "EPHEMERIS_TYPE": 0, "CLASSIFICATION_TYPE": "U", "NORAD_CAT_ID": 33972, "ELEMENT_SET_NO": 999, "REV_AT_EPOCH": 86934, "BSTAR": 0.0015103447, "MEAN_MOTION_DOT": 4.77e-05, "MEAN_MOTION_DDOT": 0}, "tle": {"line1": "1 33972U 93036FF  25336.99916845  .00004770  00000+0  15103-2 0  9994", "line2": "2 33972  73.9949 208.5999 0122933  18.5394  45.3363 14.36111231869346"}}, "geometry": {"type": "Point", "coordinates": [-149.7353188175249, 14.770034411934668]}}, {"type": "Feature", "properties": {"norad_id": 33973, "name": "COSMOS 2251 DEB", "group": "cosmos-2251-debris", "lat": -30.126551744389214, "lon": -52.05441660306419, "alt_km": 744.4429769268427, "timestamp": "2025-12-04T10:51:50.499110+00:00", "meta": {"OBJECT_NAME": "COSMOS 2251 DEB", "OBJECT_ID": "1993-036FG", "EPOCH": "2025-12-04T02:08:50.176896", "MEAN_MOTION": 14.45375882, "ECCENTRICITY": 0.0047145, "INCLINATION": 74.0072, "RA_OF_ASC_NODE": 119.0433, "ARG_OF_PERICENTER": 299.0851, "MEAN_ANOMALY": 183.7428, "EPHEMERIS_TYPE": 0, "CLASSIFICATION_TYPE": "U", "NORAD_CAT_ID": 33973, "ELEMENT_SET_NO": 999, "REV_AT_EPOCH": 88475, "BSTAR": 0.00027647, "MEAN_MOTION_DOT": 9.57e-06, "MEAN_MOTION_DDOT": 0}, "tle": {"line1": "1 33973U 93036FG  25338.08946964  .00000957  00000+0  27647-3 0  9992", "line2": "2 33973  74.0072 119.0433 0047145 299.0851 183.7428 14.45375882884755"}}, "geometry": {"type": "Point", "coordinates": [-52.05441660306419, -30.126551744389214]}}, {"type": "Feature", "properties": {"norad_id": 33975, "name": "COSMOS 2251 DEB", "group": "cosmos-2251-debris", "lat": 47.71100080151179, "lon": 117.65752115460728, "alt_km": 1026.4984938044972, "timestamp": "2025-12-04T10:51:50.499120+00:00", "meta": {"OBJECT_NAME": "COSMOS 2251 DEB", "OBJECT_ID": "1993-036FJ", "EPOCH": "2025-12-04T02:02:40.644096", "MEAN_MOTION": 14.00493924, "ECCENTRICITY": 0.0191461, "INCLINATION": 73.8012, "RA_OF_ASC_NODE": 99.6655, "ARG_OF_PERICENTER": 233.8788, "MEAN_ANOMALY": 124.4492, "EPHEMERIS_TYPE": 0, "CLASSIFICATION_TYPE": "U", "NORAD_CAT_ID": 33975, "ELEMENT_SET_NO": 999, "REV_AT_EPOCH": 85708, "BSTAR": 0.0012532, "MEAN_MOTION_DOT": 2.154e-05, "MEAN_MOTION_DDOT": 0}, "tle": {"line1": "1 33975U 93036FJ  25338.08519264  .00002154  00000+0  12532-2 0  9990", "line2": "2 33975  73.8012  99.6655 0191461 233.8788 124.4492 14.00493924857081"}}, "geometry": {"type": "Point", "coordinates": [117.65752115460728, 47.71100080151179]}}]}